{
"type": "FeatureCollection",
"name": "border",
"crs": { "type": "name", "properties": { "name": "urn:ogc:def:crs:OGC:1.3:CRS84" } },
"features": [
{ "type": "Feature", "properties": { "id": 2 }, "geometry": { "type": "MultiPolygon", "coordinates": [ [ [ [ 119.042459613311863, 36.777198720258689 ], [ 119.042326560895134, 36.773948237263227 ], [ 119.044654978188049, 36.773905607062389 ], [ 119.044616725618283, 36.771182553866886 ], [ 119.044477020580729, 36.771187882832557 ], [ 119.04445706271818, 36.768699215559344 ], [ 119.05487090906081, 36.76877382346153 ], [ 119.05481103547325, 36.771438343801485 ], [ 119.053547037514264, 36.771411699056451 ], [ 119.053540384893452, 36.772621361148332 ], [ 119.054006068352038, 36.772616032282286 ], [ 119.053952847385318, 36.774198689214366 ], [ 119.05437861511885, 36.774198689214366 ], [ 119.054764467127413, 36.776548634686002 ], [ 119.051784092992449, 36.776258225824861 ], [ 119.051983671617535, 36.778581465907507 ], [ 119.049322623282777, 36.778570809003661 ], [ 119.049309318041111, 36.777824822053091 ], [ 119.049162960382702, 36.777835479060634 ], [ 119.049049865828437, 36.776444727054766 ], [ 119.048198330361359, 36.776476698648608 ], [ 119.04822494084469, 36.776972256648058 ], [ 119.042459613311863, 36.777198720258689 ] ] ] ] } }
]
}
