{
"type": "FeatureCollection",
"name": "invadePath",
"crs": { "type": "name", "properties": { "name": "urn:ogc:def:crs:OGC:1.3:CRS84" } },
"features": [
{ "type": "Feature", "properties": { "id": null }, "geometry": { "type": "MultiLineString", "coordinates": [ [ [ 119.044099502425979, 36.772665613891107 ], [ 119.044085570488178, 36.772978085410813 ], [ 119.044141298239509, 36.773245917128321 ], [ 119.044503528623366, 36.773234757492105 ], [ 119.044977214509899, 36.773201278573715 ], [ 119.044935418696355, 36.772632134724176 ], [ 119.044949350634241, 36.772208064010897 ], [ 119.04492148675854, 36.771783990951903 ], [ 119.044447800872007, 36.771783990951903 ], [ 119.044085570488178, 36.771783990951903 ], [ 119.044071638550335, 36.772129945465757 ], [ 119.044085570488178, 36.772475898418499 ] ] ] } }
]
}
