{
"type": "FeatureCollection",
"name": "pool",
"crs": { "type": "name", "properties": { "name": "urn:ogc:def:crs:OGC:1.3:CRS84" } },
"features": [
{ "type": "Feature", "properties": { "category": null, "id": null, "area": null, "used": 1 }, "geometry": { "type": "MultiPolygon", "coordinates": [ [ [ [ 119.05193865504539, 36.776200638708438 ], [ 119.05156945869264, 36.774180795942684 ], [ 119.051813267604842, 36.774180795942684 ], [ 119.052203361864329, 36.776222957115749 ], [ 119.05193865504539, 36.776200638708438 ] ] ] ] } },
{ "type": "Feature", "properties": { "category": null, "id": null, "area": null, "used": 1 }, "geometry": { "type": "MultiPolygon", "coordinates": [ [ [ [ 119.053074107979313, 36.776301071490153 ], [ 119.052760639377894, 36.774180795942684 ], [ 119.053380610611768, 36.774208694685889 ], [ 119.053708011151031, 36.776368026604864 ], [ 119.053074107979313, 36.776301071490153 ] ] ] ] } },
{ "type": "Feature", "properties": { "category": null, "id": null, "area": null, "used": 1 }, "geometry": { "type": "MultiPolygon", "coordinates": [ [ [ [ 119.052593456123859, 36.774058041351957 ], [ 119.052593456123859, 36.771379710443284 ], [ 119.052990516352281, 36.771396450302035 ], [ 119.053032312165797, 36.774063621110329 ], [ 119.052593456123859, 36.774058041351957 ] ] ] ] } },
{ "type": "Feature", "properties": { "category": null, "id": null, "area": null, "used": 1 }, "geometry": { "type": "MultiPolygon", "coordinates": [ [ [ [ 119.052565592248143, 36.771284851174634 ], [ 119.052600422092752, 36.768807308714315 ], [ 119.05288602681847, 36.768812888854875 ], [ 119.052879060849563, 36.771279271213999 ], [ 119.052565592248143, 36.771284851174634 ] ] ] ] } },
{ "type": "Feature", "properties": { "category": null, "id": null, "area": null, "used": 1 }, "geometry": { "type": "MultiPolygon", "coordinates": [ [ [ [ 119.045411542167571, 36.770972372753725 ], [ 119.045397610229713, 36.768784988148113 ], [ 119.04546726991893, 36.768796148432031 ], [ 119.045495133794589, 36.770983532719264 ], [ 119.045411542167571, 36.770972372753725 ] ] ] ] } },
{ "type": "Feature", "properties": { "category": null, "id": null, "area": null, "used": 1 }, "geometry": { "type": "MultiPolygon", "coordinates": [ [ [ [ 119.05104701102367, 36.774074780625881 ], [ 119.051053976992549, 36.773048098394398 ], [ 119.050775338235795, 36.773053678226304 ], [ 119.05104701102367, 36.774074780625881 ] ] ] ] } }
]
}
