{
"type": "FeatureCollection",
"name": "water",
"crs": { "type": "name", "properties": { "name": "urn:ogc:def:crs:OGC:1.3:CRS84" } },
"features": [
{ "type": "Feature", "properties": { "id": 1 }, "geometry": { "type": "MultiPolygon", "coordinates": [ [ [ [ 119.047654584159716, 36.77131833092988 ], [ 119.047640652221901, 36.771284851174599 ], [ 119.04761975431515, 36.771195571755726 ], [ 119.047584924470542, 36.770838453040597 ], [ 119.047529196719182, 36.770403212357486 ], [ 119.047473468967837, 36.770157690882165 ], [ 119.047452571061058, 36.770001449533979 ], [ 119.04746650299893, 36.769834047736161 ], [ 119.047431673154307, 36.769677805728463 ], [ 119.047396843309727, 36.769488082862487 ], [ 119.047375945402962, 36.769231398237793 ], [ 119.047355047496211, 36.769097475483775 ], [ 119.047355047496211, 36.7690026133915 ], [ 119.047306285713759, 36.768918911447898 ], [ 119.047313251682695, 36.768863110101385 ], [ 119.047306285713759, 36.768818468994965 ], [ 119.047355047496211, 36.768784988148077 ], [ 119.047473468967837, 36.768807308714294 ], [ 119.047522230750275, 36.768902171048211 ], [ 119.047550094625961, 36.7690026133915 ], [ 119.047612788346242, 36.769086315243726 ], [ 119.047703345942182, 36.769142116427773 ], [ 119.047647618190837, 36.769209077795033 ], [ 119.047647618190837, 36.769270458996992 ], [ 119.047689414004324, 36.769343000354112 ], [ 119.047668516097602, 36.769443442119929 ], [ 119.047668516097602, 36.76953272357909 ], [ 119.047668516097602, 36.769610844770554 ], [ 119.047675482066509, 36.76971128618549 ], [ 119.047710311911118, 36.769783827125558 ], [ 119.047724243848933, 36.769822887603326 ], [ 119.047703345942182, 36.769917748680761 ], [ 119.047647618190851, 36.769984709370632 ], [ 119.047731209817897, 36.770046089951656 ], [ 119.047738175786819, 36.770146530796445 ], [ 119.047752107724634, 36.770269291650237 ], [ 119.047779971600335, 36.770364152175368 ], [ 119.047779971600335, 36.770514812768191 ], [ 119.047793903538178, 36.770604092979788 ], [ 119.047807835475993, 36.770693373087404 ], [ 119.047821767413865, 36.770771493096319 ], [ 119.047821767413865, 36.770883092970962 ], [ 119.047849631289509, 36.770955632802348 ], [ 119.047856597258445, 36.77100585264543 ], [ 119.047842665320601, 36.771100712259255 ], [ 119.047863563227381, 36.771150932007302 ], [ 119.047849631289466, 36.771248581423208 ], [ 119.047842665320559, 36.771309960992419 ], [ 119.047654584159716, 36.77131833092988 ] ] ] ] } },
{ "type": "Feature", "properties": { "id": 2 }, "geometry": { "type": "MultiPolygon", "coordinates": [ [ [ [ 119.04810040617059, 36.773943656215444 ], [ 119.048065576325953, 36.77384322034515 ], [ 119.048009848574623, 36.773759523686046 ], [ 119.04798198469895, 36.77373720456152 ], [ 119.047947154854356, 36.773620029051159 ], [ 119.04793322291647, 36.77351959275687 ], [ 119.047898393071904, 36.773474954361625 ], [ 119.04787749516511, 36.773279661076778 ], [ 119.04787749516511, 36.773129005917127 ], [ 119.04787749516511, 36.77305646814208 ], [ 119.047856597258388, 36.772961610948052 ], [ 119.047849631289466, 36.772883493170752 ], [ 119.047849631289466, 36.772805375313823 ], [ 119.047835699351594, 36.772704937952277 ], [ 119.047814801444844, 36.772604500459124 ], [ 119.047793903538107, 36.77252638231792 ], [ 119.047779971600235, 36.772448264097136 ], [ 119.047800869507043, 36.772336666500784 ], [ 119.047800869507043, 36.772230648633787 ], [ 119.047759073693513, 36.772035352179216 ], [ 119.047752107724591, 36.771957233458082 ], [ 119.047717277879983, 36.77192933389555 ], [ 119.047717277879983, 36.771879114657381 ], [ 119.047717277879983, 36.771812155621973 ], [ 119.047717277879983, 36.771739616600961 ], [ 119.047710311911075, 36.77167265744373 ], [ 119.047717277879983, 36.771594538353035 ], [ 119.047710311911075, 36.771533159011668 ], [ 119.047668516097559, 36.771466199674116 ], [ 119.047626720284015, 36.771393660325778 ], [ 119.047828733382715, 36.771371340512474 ], [ 119.047849631289466, 36.77151641918276 ], [ 119.047891427102996, 36.771600118290742 ], [ 119.047926256947591, 36.771661497578506 ], [ 119.047988950667872, 36.771795415853973 ], [ 119.047988950667872, 36.771940493721779 ], [ 119.047988950667872, 36.772063251703187 ], [ 119.04801681454353, 36.772180429592986 ], [ 119.048030746481388, 36.772275287753558 ], [ 119.048051644388138, 36.772381305558824 ], [ 119.047968052761078, 36.772476163470841 ], [ 119.04798198469895, 36.772531962187792 ], [ 119.048044678419231, 36.77259892059454 ], [ 119.048086474232747, 36.772693778237311 ], [ 119.048107372139498, 36.772788635762716 ], [ 119.048121304077313, 36.772889073014625 ], [ 119.048086474232747, 36.77292813191039 ], [ 119.048058610357046, 36.772989510134963 ], [ 119.048079508263839, 36.773129005917127 ], [ 119.048079508263839, 36.77321828308451 ], [ 119.048142201984106, 36.773274081261327 ], [ 119.048121304077313, 36.773346618830487 ], [ 119.04810040617059, 36.773374517877258 ], [ 119.048149167953014, 36.77342473613588 ], [ 119.048163099890857, 36.773486113962868 ], [ 119.048170065859779, 36.773558651331406 ], [ 119.048170065859779, 36.773642348209798 ], [ 119.048142201984106, 36.773720465213863 ], [ 119.048149167953014, 36.773820901244974 ], [ 119.048177031828715, 36.773893438296746 ], [ 119.048183997797622, 36.773954815748468 ], [ 119.04810040617059, 36.773943656215444 ] ] ] ] } },
{ "type": "Feature", "properties": { "id": 3 }, "geometry": { "type": "MultiPolygon", "coordinates": [ [ [ [ 119.048211861673281, 36.776426612282215 ], [ 119.048156133921921, 36.77614205285829 ], [ 119.04813523601517, 36.775946766367895 ], [ 119.048093440201654, 36.775584090137251 ], [ 119.048058610357046, 36.775271629239512 ], [ 119.048030746481345, 36.775042862417514 ], [ 119.048009848574623, 36.774680181910355 ], [ 119.047995916636779, 36.774523949778498 ], [ 119.047995916636779, 36.774417934936274 ], [ 119.048065576325953, 36.774417934936274 ], [ 119.048072542294889, 36.774390036269217 ], [ 119.048114338108405, 36.774345398380802 ], [ 119.048093440201654, 36.77427844149944 ], [ 119.048072542294889, 36.774228223800037 ], [ 119.048058610357046, 36.774155687065047 ], [ 119.048058610357046, 36.774038512194338 ], [ 119.048204895704373, 36.77407199074711 ], [ 119.048156133921921, 36.774189165566654 ], [ 119.048204895704373, 36.774311919947429 ], [ 119.048232759580046, 36.774378876799545 ], [ 119.04819096376653, 36.774456993053107 ], [ 119.048253657486825, 36.774523949778498 ], [ 119.048218827642188, 36.77461322532141 ], [ 119.048177031828672, 36.774702500760348 ], [ 119.04819096376653, 36.774775036977935 ], [ 119.048232759580046, 36.774836413723804 ], [ 119.048260623455732, 36.774903370117812 ], [ 119.048225793611138, 36.774975906145336 ], [ 119.048218827642188, 36.775037282730395 ], [ 119.048253657486825, 36.775093079583257 ], [ 119.048267589424654, 36.775171195109046 ], [ 119.048253657486825, 36.775254890226904 ], [ 119.048288487331433, 36.775360903911682 ], [ 119.048281521362497, 36.775399961548068 ], [ 119.048288487331433, 36.775483656416164 ], [ 119.048316351207077, 36.775533873293149 ], [ 119.048351181051686, 36.775595249431468 ], [ 119.048309385238156, 36.775634306948461 ], [ 119.048309385238156, 36.77574589974445 ], [ 119.048330283144892, 36.775818434974752 ], [ 119.048351181051743, 36.775969084849123 ], [ 119.048386010896323, 36.776036040253807 ], [ 119.048392976865259, 36.776114154818679 ], [ 119.048406908803074, 36.77616995088772 ], [ 119.048392976865259, 36.776259224513716 ], [ 119.048448704616618, 36.776275963307008 ], [ 119.04846960252334, 36.776354077627396 ], [ 119.048476568492262, 36.776409873521814 ], [ 119.048211861673281, 36.776426612282215 ] ] ] ] } }
]
}
