{
"type": "FeatureCollection",
"name": "dronWander2",
"crs": { "type": "name", "properties": { "name": "urn:ogc:def:crs:OGC:1.3:CRS84" } },
"features": [
{ "type": "Feature", "properties": { "id": null }, "geometry": { "type": "MultiLineString", "coordinates": [ [ [ 119.045961853712186, 36.772618450118863 ], [ 119.045878262085139, 36.769627585015542 ], [ 119.053861262467208, 36.769694545958842 ], [ 119.053819466653692, 36.77067663307519 ], [ 119.050865895831706, 36.77067663307519 ], [ 119.051060942961456, 36.775519924164009 ], [ 119.044053178228182, 36.775620357837589 ], [ 119.045920057898655, 36.772607290391328 ] ] ] } }
]
}
