{
"type": "FeatureCollection",
"name": "farm",
"crs": { "type": "name", "properties": { "name": "urn:ogc:def:crs:OGC:1.3:CRS84" } },
"features": [
{ "type": "Feature", "properties": { "id": null, "used": "2", "value": 65.12 }, "geometry": { "type": "MultiPolygon", "coordinates": [ [ [ [ 119.042604723603887, 36.777106802756194 ], [ 119.042484976428838, 36.774032165401835 ], [ 119.043050449199995, 36.77401617909679 ], [ 119.043143585891684, 36.777090817092351 ], [ 119.042604723603887, 36.777106802756194 ] ] ] ] } },
{ "type": "Feature", "properties": { "id": null, "used": "1", "value": 53.12 }, "geometry": { "type": "MultiPolygon", "coordinates": [ [ [ [ 119.043570353928729, 36.777079735241301 ], [ 119.043486762301697, 36.7740332466011 ], [ 119.043839405635666, 36.774027038506617 ], [ 119.043922997262698, 36.777073527393554 ], [ 119.043570353928729, 36.777079735241301 ] ] ] ] } },
{ "type": "Feature", "properties": { "id": null, "used": "2", "value": 64.52 }, "geometry": { "type": "MultiPolygon", "coordinates": [ [ [ [ 119.044075386675374, 36.777062996623535 ], [ 119.043956965203762, 36.774027666840496 ], [ 119.045094445454197, 36.773999194182181 ], [ 119.045212866925851, 36.777034525092596 ], [ 119.044075386675374, 36.777062996623535 ] ] ] ] } },
{ "type": "Feature", "properties": { "id": null, "used": "2", "value": 70.1 }, "geometry": { "type": "MultiPolygon", "coordinates": [ [ [ [ 119.045740253247217, 36.776956985292699 ], [ 119.045642729682342, 36.773994188268382 ], [ 119.045851752180724, 36.77398977397899 ], [ 119.045949275745599, 36.776952571173929 ], [ 119.045740253247217, 36.776956985292699 ] ] ] ] } },
{ "type": "Feature", "properties": { "id": null, "used": "2", "value": 74.23 }, "geometry": { "type": "MultiPolygon", "coordinates": [ [ [ [ 119.046297530760825, 36.77696256484009 ], [ 119.046179109289184, 36.773955129915763 ], [ 119.047773660147584, 36.773914845867637 ], [ 119.047892081619224, 36.776922282372375 ], [ 119.046297530760825, 36.77696256484009 ] ] ] ] } },
{ "type": "Feature", "properties": { "id": null, "used": "1", "value": 58.32 }, "geometry": { "type": "MultiPolygon", "coordinates": [ [ [ [ 119.044737153722792, 36.773860273833684 ], [ 119.044688391940355, 36.771271215450533 ], [ 119.045450784502691, 36.771262002295053 ], [ 119.045499546285143, 36.77385106098933 ], [ 119.044737153722792, 36.773860273833684 ] ] ] ] } },
{ "type": "Feature", "properties": { "id": null, "used": "2", "value": 66.54 }, "geometry": { "type": "MultiPolygon", "coordinates": [ [ [ [ 119.04556610402426, 36.773810055860366 ], [ 119.045538240148588, 36.77128795533298 ], [ 119.046240671118071, 36.771282975958485 ], [ 119.046268534993771, 36.773805076649673 ], [ 119.04556610402426, 36.773810055860366 ] ] ] ] } },
{ "type": "Feature", "properties": { "id": null, "used": "1", "value": 55.34 }, "geometry": { "type": "MultiPolygon", "coordinates": [ [ [ [ 119.046346292543248, 36.773782156972089 ], [ 119.046318428667576, 36.771304695211789 ], [ 119.047161310906844, 36.771304695211789 ], [ 119.047321528191986, 36.771338174958395 ], [ 119.047412085787954, 36.771393974503582 ], [ 119.047516575321751, 36.771477673745238 ], [ 119.047593200979875, 36.771561372895491 ], [ 119.047843975860985, 36.773492007932091 ], [ 119.04766286066905, 36.773525486723514 ], [ 119.047739486327202, 36.77377657719321 ], [ 119.046346292543248, 36.773782156972089 ] ] ] ] } },
{ "type": "Feature", "properties": { "id": null, "used": "2", "value": 67.56 }, "geometry": { "type": "MultiPolygon", "coordinates": [ [ [ [ 119.044542106593028, 36.771131716288068 ], [ 119.04453514062412, 36.768782512265332 ], [ 119.045033680721673, 36.768781563668306 ], [ 119.04504064669058, 36.771130767720102 ], [ 119.044542106593028, 36.771131716288068 ] ] ] ] } },
{ "type": "Feature", "properties": { "id": null, "used": "2", "value": 69.23 }, "geometry": { "type": "MultiPolygon", "coordinates": [ [ [ [ 119.045245669453891, 36.771131716288068 ], [ 119.045231737516048, 36.768776932122584 ], [ 119.045351987433548, 36.768776475595949 ], [ 119.045365919371378, 36.771131259775437 ], [ 119.045245669453891, 36.771131716288068 ] ] ] ] } },
{ "type": "Feature", "properties": { "id": null, "used": "2", "value": 68.86 }, "geometry": { "type": "MultiPolygon", "coordinates": [ [ [ [ 119.045531274179595, 36.771103816425104 ], [ 119.045510376272858, 36.76879367254962 ], [ 119.045614863063363, 36.768793066028394 ], [ 119.045635760970143, 36.77110320992216 ], [ 119.045531274179595, 36.771103816425104 ] ] ] ] } },
{ "type": "Feature", "properties": { "id": null, "used": "2", "value": 65.22 }, "geometry": { "type": "MultiPolygon", "coordinates": [ [ [ [ 119.045782049060733, 36.771148456200962 ], [ 119.045761151153954, 36.768760191691904 ], [ 119.045994791115078, 36.768758879828844 ], [ 119.046015689021814, 36.771147144378766 ], [ 119.045782049060733, 36.771148456200962 ] ] ] ] } },
{ "type": "Feature", "properties": { "id": null, "used": "1", "value": 56.17 }, "geometry": { "type": "MultiPolygon", "coordinates": [ [ [ [ 119.04605372184858, 36.771137296259425 ], [ 119.046039789910765, 36.768782512265332 ], [ 119.046354490935741, 36.768781317508662 ], [ 119.046368422873556, 36.771136101539447 ], [ 119.04605372184858, 36.771137296259425 ] ] ] ] } },
{ "type": "Feature", "properties": { "id": null, "used": "2", "value": 66.52 }, "geometry": { "type": "MultiPolygon", "coordinates": [ [ [ [ 119.046426401185812, 36.77112055634408 ], [ 119.046405503279075, 36.768771351979417 ], [ 119.047039406450793, 36.768771351979417 ], [ 119.047136930015654, 36.769987813581658 ], [ 119.047352875052155, 36.769987813581658 ], [ 119.047401636834579, 36.771126136316262 ], [ 119.046426401185812, 36.77112055634408 ] ] ] ] } },
{ "type": "Feature", "properties": { "id": null, "used": "2", "value": 66.28 }, "geometry": { "type": "MultiPolygon", "coordinates": [ [ [ [ 119.049218883976408, 36.777755553881121 ], [ 119.049121360411533, 36.776461101397018 ], [ 119.050068732184613, 36.776422044301299 ], [ 119.050194119625189, 36.777722076937074 ], [ 119.049218883976408, 36.777755553881121 ] ] ] ] } },
{ "type": "Feature", "properties": { "id": null, "used": "1", "value": 59.63 }, "geometry": { "type": "MultiPolygon", "coordinates": [ [ [ [ 119.05024288140757, 36.777710917952462 ], [ 119.050110527998086, 36.776422044301299 ], [ 119.050472758381943, 36.776405305539896 ], [ 119.050591179853569, 36.777699758966243 ], [ 119.05024288140757, 36.777710917952462 ] ] ] ] } },
{ "type": "Feature", "properties": { "id": null, "used": "2", "value": 64.12 }, "geometry": { "type": "MultiPolygon", "coordinates": [ [ [ [ 119.050695669387366, 36.778514360691425 ], [ 119.050514554195459, 36.776405305539903 ], [ 119.050973224414705, 36.776380035685378 ], [ 119.051154339606626, 36.778489091532194 ], [ 119.050695669387366, 36.778514360691425 ] ] ] ] } },
{ "type": "Feature", "properties": { "id": null, "used": "1", "value": 57.15 }, "geometry": { "type": "MultiPolygon", "coordinates": [ [ [ [ 119.048682504369609, 36.776388566774848 ], [ 119.048571048866876, 36.775328437541724 ], [ 119.048466559333093, 36.77533959687316 ], [ 119.048369035768218, 36.774151118948829 ], [ 119.048612844680392, 36.774190177201596 ], [ 119.048995972971014, 36.776382987185677 ], [ 119.048682504369609, 36.776388566774848 ] ] ] ] } },
{ "type": "Feature", "properties": { "id": null, "used": "2", "value": 61.24 }, "geometry": { "type": "MultiPolygon", "coordinates": [ [ [ [ 119.049044734753437, 36.776366248415755 ], [ 119.048647674525029, 36.774195756950363 ], [ 119.049239781883202, 36.774190177201596 ], [ 119.049581114360279, 36.776349509642166 ], [ 119.049044734753437, 36.776366248415755 ] ] ] ] } },
{ "type": "Feature", "properties": { "id": null, "used": "2", "value": 63.32 }, "geometry": { "type": "MultiPolygon", "coordinates": [ [ [ [ 119.049908514899528, 36.776316032084054 ], [ 119.049553250484621, 36.774173437952854 ], [ 119.049282529724493, 36.774202238030206 ], [ 119.0496377941394, 36.776344831356461 ], [ 119.049908514899528, 36.776316032084054 ] ] ] ] } },
{ "type": "Feature", "properties": { "id": null, "used": "2", "value": 64.21 }, "geometry": { "type": "MultiPolygon", "coordinates": [ [ [ [ 119.05047972435095, 36.776343930050189 ], [ 119.050110527998214, 36.774145539196823 ], [ 119.050953410237454, 36.774156698700445 ], [ 119.051343504496998, 36.776276974914417 ], [ 119.05047972435095, 36.776343930050189 ] ] ] ] } },
{ "type": "Feature", "properties": { "id": null, "used": "2", "value": 61.02 }, "geometry": { "type": "MultiPolygon", "coordinates": [ [ [ [ 119.051580347440236, 36.776232338124757 ], [ 119.05121811705645, 36.774151118948836 ], [ 119.05099885554344, 36.774175603390162 ], [ 119.051361085927226, 36.776256821901356 ], [ 119.051580347440236, 36.776232338124757 ] ] ] ] } },
{ "type": "Feature", "properties": { "id": null, "used": "1", "value": 52.36 }, "geometry": { "type": "MultiPolygon", "coordinates": [ [ [ [ 119.048480491271008, 36.774109270798782 ], [ 119.048759130027761, 36.77412043030769 ], [ 119.048480491271008, 36.773004471375167 ], [ 119.048480491271008, 36.774109270798782 ] ] ] ] } },
{ "type": "Feature", "properties": { "id": null, "used": "2", "value": 60.23 }, "geometry": { "type": "MultiPolygon", "coordinates": [ [ [ [ 119.048814857779149, 36.774098111288239 ], [ 119.048522287084523, 36.772970992356221 ], [ 119.048424763519606, 36.772970992356221 ], [ 119.048146124762852, 36.771397461973777 ], [ 119.048410831581791, 36.771319342602688 ], [ 119.048689470338601, 36.771363982253057 ], [ 119.049191020100807, 36.774086951776077 ], [ 119.048814857779149, 36.774098111288239 ] ] ] ] } },
{ "type": "Feature", "properties": { "id": null, "used": "2", "value": 60.78 }, "geometry": { "type": "MultiPolygon", "coordinates": [ [ [ [ 119.048114777902725, 36.772438116002867 ], [ 119.048066016120259, 36.772187021149385 ], [ 119.0480102883689, 36.771489531130371 ], [ 119.048107811933804, 36.771483951184635 ], [ 119.048323756970319, 36.772466015380253 ], [ 119.048114777902725, 36.772438116002867 ] ] ] ] } },
{ "type": "Feature", "properties": { "id": null, "used": "1", "value": 55.6 }, "geometry": { "type": "MultiPolygon", "coordinates": [ [ [ [ 119.049326856494787, 36.774081372019388 ], [ 119.04881137479471, 36.771330502517699 ], [ 119.048953390990675, 36.771313427071838 ], [ 119.049468872690753, 36.774064297186207 ], [ 119.049326856494787, 36.774081372019388 ] ] ] ] } },
{ "type": "Feature", "properties": { "id": null, "used": "2", "value": 68.36 }, "geometry": { "type": "MultiPolygon", "coordinates": [ [ [ [ 119.049521903624495, 36.774070212504796 ], [ 119.049013387893339, 36.771341662431105 ], [ 119.049285060681242, 36.771336082474605 ], [ 119.049786610443448, 36.774053473229834 ], [ 119.049521903624495, 36.774070212504796 ] ] ] ] } },
{ "type": "Feature", "properties": { "id": null, "used": "2", "value": 70.23 }, "geometry": { "type": "MultiPolygon", "coordinates": [ [ [ [ 119.049849304163729, 36.774053473229834 ], [ 119.049326856494758, 36.771347242387208 ], [ 119.050246364392152, 36.771336082474605 ], [ 119.050991723066588, 36.774075792262288 ], [ 119.049849304163729, 36.774053473229834 ] ] ] ] } },
{ "type": "Feature", "properties": { "id": null, "used": "2", "value": 71.36 }, "geometry": { "type": "MultiPolygon", "coordinates": [ [ [ [ 119.051179804227431, 36.774064632746878 ], [ 119.05115890632068, 36.771369562207511 ], [ 119.051518508042079, 36.771367773064739 ], [ 119.05153940594883, 36.774062843666997 ], [ 119.051179804227431, 36.774064632746878 ] ] ] ] } },
{ "type": "Feature", "properties": { "id": null, "used": "2", "value": 63.54 }, "geometry": { "type": "MultiPolygon", "coordinates": [ [ [ [ 119.051618660269369, 36.774047893470708 ], [ 119.051590796393711, 36.771397461973756 ], [ 119.052067732207732, 36.771394244794394 ], [ 119.052095596083419, 36.774044676402561 ], [ 119.051618660269369, 36.774047893470708 ] ] ] ] } },
{ "type": "Feature", "properties": { "id": null, "used": "2", "value": 65.24 }, "geometry": { "type": "MultiPolygon", "coordinates": [ [ [ [ 119.052175937782977, 36.774042313711163 ], [ 119.052162005845119, 36.771397461973756 ], [ 119.052530870184569, 36.771396215258491 ], [ 119.052544802122441, 36.774041067038915 ], [ 119.052175937782977, 36.774042313711163 ] ] ] ] } },
{ "type": "Feature", "properties": { "id": null, "used": "1", "value": 54.45 }, "geometry": { "type": "MultiPolygon", "coordinates": [ [ [ [ 119.053071064789123, 36.774095321410357 ], [ 119.053036234944543, 36.771416991804102 ], [ 119.053373185285679, 36.77141418026897 ], [ 119.053408015130287, 36.77409250997345 ], [ 119.053071064789123, 36.774095321410357 ] ] ] ] } },
{ "type": "Feature", "properties": { "id": null, "used": "2", "value": 67.74 }, "geometry": { "type": "MultiPolygon", "coordinates": [ [ [ [ 119.053461159048638, 36.774095321410357 ], [ 119.053461159048638, 36.772666890597826 ], [ 119.053567261526155, 36.772666890597826 ], [ 119.053567261526155, 36.774095321410357 ], [ 119.053461159048638, 36.774095321410357 ] ] ] ] } },
{ "type": "Feature", "properties": { "id": null, "used": "1", "value": 53.12 }, "geometry": { "type": "MultiPolygon", "coordinates": [ [ [ [ 119.05225604642547, 36.776237917724885 ], [ 119.05187988410384, 36.774167858202446 ], [ 119.052283910301185, 36.774190177201596 ], [ 119.052597378902547, 36.776271395317139 ], [ 119.05225604642547, 36.776237917724885 ] ] ] ] } },
{ "type": "Feature", "properties": { "id": null, "used": "2", "value": 67.14 }, "geometry": { "type": "MultiPolygon", "coordinates": [ [ [ [ 119.052639174716091, 36.776254656522823 ], [ 119.052325706114715, 36.774184597452411 ], [ 119.052701868436372, 36.774206916446694 ], [ 119.053008371068856, 36.776304872894755 ], [ 119.052639174716091, 36.776254656522823 ] ] ] ] } },
{ "type": "Feature", "properties": { "id": null, "used": "1", "value": 52.36 }, "geometry": { "type": "MultiPolygon", "coordinates": [ [ [ [ 119.053955742841922, 36.776405305539896 ], [ 119.053670138116203, 36.774234815180407 ], [ 119.054331905163593, 36.774240394925918 ], [ 119.054701101516372, 36.776488999310331 ], [ 119.053955742841922, 36.776405305539896 ] ] ] ] } },
{ "type": "Feature", "properties": { "id": null, "used": "2", "value": 66.53 }, "geometry": { "type": "MultiPolygon", "coordinates": [ [ [ [ 119.05375372974332, 36.776382987185684 ], [ 119.053426329204058, 36.774257134160059 ], [ 119.053635308271666, 36.774262713903944 ], [ 119.053927878966263, 36.77640530553991 ], [ 119.05375372974332, 36.776382987185684 ] ] ] ] } },
{ "type": "Feature", "properties": { "id": null, "used": "2", "value": 64.25 }, "geometry": { "type": "MultiPolygon", "coordinates": [ [ [ [ 119.051782360538965, 36.776204440118015 ], [ 119.051364402403749, 36.774173437952847 ], [ 119.051517653719984, 36.774179017702842 ], [ 119.051893816041684, 36.776204440118015 ], [ 119.051782360538965, 36.776204440118015 ] ] ] ] } },
{ "type": "Feature", "properties": { "id": null, "used": "1", "value": 56.46 }, "geometry": { "type": "MultiPolygon", "coordinates": [ [ [ [ 119.049866719086069, 36.771232853206151 ], [ 119.049894582961741, 36.768794370067297 ], [ 119.050159289780652, 36.768799950208788 ], [ 119.050117493967136, 36.771238433170168 ], [ 119.049866719086069, 36.771232853206151 ] ] ] ] } },
{ "type": "Feature", "properties": { "id": null, "used": "2", "value": 69.13 }, "geometry": { "type": "MultiPolygon", "coordinates": [ [ [ [ 119.05206796526474, 36.771271912945714 ], [ 119.052074931233648, 36.768811110490546 ], [ 119.052548617120223, 36.768811110490546 ], [ 119.052513787275615, 36.771277492906883 ], [ 119.05206796526474, 36.771271912945714 ] ] ] ] } },
{ "type": "Feature", "properties": { "id": null, "used": "1", "value": 57.38 }, "geometry": { "type": "MultiPolygon", "coordinates": [ [ [ [ 119.052910847504009, 36.770529774491351 ], [ 119.052917813472945, 36.768833431049146 ], [ 119.053115822442251, 36.768833952813914 ], [ 119.05310885647333, 36.770530296244573 ], [ 119.052910847504009, 36.770529774491351 ] ] ] ] } },
{ "type": "Feature", "properties": { "id": null, "used": "1", "value": 58.41 }, "geometry": { "type": "MultiPolygon", "coordinates": [ [ [ [ 119.053287009825723, 36.771288652827998 ], [ 119.053300941763524, 36.768866911874881 ], [ 119.053567927351764, 36.768867897453703 ], [ 119.053553995413921, 36.771289638375691 ], [ 119.053287009825723, 36.771288652827998 ] ] ] ] } },
{ "type": "Feature", "properties": { "id": null, "used": "2", "value": 74.23 }, "geometry": { "type": "MultiPolygon", "coordinates": [ [ [ [ 119.053872151214961, 36.771255173059771 ], [ 119.053900015090605, 36.768839011187787 ], [ 119.054046956096258, 36.768840098560773 ], [ 119.054019092220571, 36.771256260398495 ], [ 119.053872151214961, 36.771255173059771 ] ] ] ] } },
{ "type": "Feature", "properties": { "id": null, "used": "1", "value": 51.23 }, "geometry": { "type": "MultiPolygon", "coordinates": [ [ [ [ 119.054304041287992, 36.771333292496244 ], [ 119.05433190516365, 36.768866911874881 ], [ 119.054710366854863, 36.768869655488324 ], [ 119.05468250297919, 36.771336036021431 ], [ 119.054304041287992, 36.771333292496244 ] ] ] ] } },
{ "type": "Feature", "properties": { "id": null, "used": "1", "value": 59.36 }, "geometry": { "type": "MultiPolygon", "coordinates": [ [ [ [ 119.043186354891944, 36.777080432683618 ], [ 119.043113212218259, 36.774017204788265 ], [ 119.04344173623484, 36.774012171889424 ], [ 119.043514878908496, 36.77707539998589 ], [ 119.043186354891944, 36.777080432683618 ] ] ] ] } },
{ "type": "Feature", "properties": { "id": null, "used": "2", "value": 67.71 }, "geometry": { "type": "MultiPolygon", "coordinates": [ [ [ [ 119.045265696614479, 36.776991160014035 ], [ 119.045154241111746, 36.774006045264336 ], [ 119.04558644324581, 36.773995691761449 ], [ 119.045697898748557, 36.776980806914324 ], [ 119.045265696614479, 36.776991160014035 ] ] ] ] } },
{ "type": "Feature", "properties": { "id": null, "used": "2", "value": 63.32 }, "geometry": { "type": "MultiPolygon", "coordinates": [ [ [ [ 119.046004089319979, 36.776957682736139 ], [ 119.045892633817232, 36.773989305975377 ], [ 119.046145701458173, 36.773983209494006 ], [ 119.046257156960891, 36.776951586490839 ], [ 119.046004089319979, 36.776957682736139 ] ] ] ] } },
{ "type": "Feature", "properties": { "id": null, "used": "2", "value": 67.71 }, "geometry": { "type": "MultiPolygon", "coordinates": [ [ [ [ 119.052949160333043, 36.771305392706623 ], [ 119.053227799089797, 36.771299812747486 ], [ 119.053255662965498, 36.768850171463839 ], [ 119.053158139400622, 36.768855751601258 ], [ 119.053151173431715, 36.770959434472083 ], [ 119.052970058239779, 36.770959434472083 ], [ 119.052949160333043, 36.771305392706623 ] ] ] ] } },
{ "type": "Feature", "properties": { "id": null, "used": "1", "value": 55.23 }, "geometry": { "type": "MultiPolygon", "coordinates": [ [ [ [ 119.05361789334934, 36.771277492906883 ], [ 119.053631825287184, 36.768889232417237 ], [ 119.053785076603404, 36.768883652282248 ], [ 119.053743280789888, 36.771283072867632 ], [ 119.05361789334934, 36.771277492906883 ] ] ] ] } },
{ "type": "Feature", "properties": { "id": null, "used": "1", "value": 54.4 }, "geometry": { "type": "MultiPolygon", "coordinates": [ [ [ [ 119.054133375049403, 36.771288652827991 ], [ 119.054147306987247, 36.768861331738258 ], [ 119.054286626365609, 36.768861331738258 ], [ 119.054272694427794, 36.771294232787952 ], [ 119.054133375049403, 36.771288652827991 ] ] ] ] } },
{ "type": "Feature", "properties": { "id": null, "used": "2", "value": 61.11 }, "geometry": { "type": "MultiPolygon", "coordinates": [ [ [ [ 119.050190636640878, 36.77120495338 ], [ 119.050232432454393, 36.768816690630793 ], [ 119.051409681201832, 36.768811110490546 ], [ 119.051346987481566, 36.771216113311681 ], [ 119.050190636640878, 36.77120495338 ] ] ] ] } },
{ "type": "Feature", "properties": { "id": null, "used": "2", "value": 60.17 }, "geometry": { "type": "MultiPolygon", "coordinates": [ [ [ [ 119.051458442984284, 36.771210533346043 ], [ 119.051486306859957, 36.768794370067319 ], [ 119.052008754528941, 36.768805530349873 ], [ 119.052015720497877, 36.771216113311681 ], [ 119.051458442984284, 36.771210533346043 ] ] ] ] } },
{ "type": "Feature", "properties": { "id": null, "used": "1", "value": 53.32 }, "geometry": { "type": "MultiPolygon", "coordinates": [ [ [ [ 119.049389550215125, 36.778497622386951 ], [ 119.050636458651724, 36.778508781257031 ], [ 119.050566798962564, 36.777794610297398 ], [ 119.049375618277224, 36.777816928240604 ], [ 119.049389550215125, 36.778497622386951 ] ] ] ] } },
{ "type": "Feature", "properties": { "id": null, "used": "2", "value": 65.32 }, "geometry": { "type": "MultiPolygon", "coordinates": [ [ [ [ 119.051221600040989, 36.778486463515257 ], [ 119.051040484849054, 36.776377407596129 ], [ 119.051653490114035, 36.776299293299523 ], [ 119.051862469181614, 36.778519940125477 ], [ 119.051221600040989, 36.778519940125477 ], [ 119.051221600040989, 36.778486463515257 ] ] ] ] } },
{ "type": "Feature", "properties": { "id": null, "used": "1", "value": 51.36 }, "geometry": { "type": "MultiPolygon", "coordinates": [ [ [ [ 119.053642274240602, 36.773118857912969 ], [ 119.053642274240602, 36.772672470457479 ], [ 119.053941810904149, 36.772661310737774 ], [ 119.053955742841964, 36.773113278085816 ], [ 119.053642274240602, 36.773118857912969 ] ] ] ] } },
{ "type": "Feature", "properties": { "id": null, "used": "2", "value": 67.16 }, "geometry": { "type": "MultiPolygon", "coordinates": [ [ [ [ 119.053628342302787, 36.773665679003798 ], [ 119.053635308271694, 36.773169076339059 ], [ 119.053941810904149, 36.773163496515558 ], [ 119.053934844935227, 36.773660099216443 ], [ 119.053628342302787, 36.773665679003798 ] ] ] ] } },
{ "type": "Feature", "properties": { "id": null, "used": "1", "value": 57.46 }, "geometry": { "type": "MultiPolygon", "coordinates": [ [ [ [ 119.053635308271694, 36.774100901166037 ], [ 119.053635308271694, 36.773715897071689 ], [ 119.053934844935227, 36.773715897071689 ], [ 119.053913947028477, 36.774106480921311 ], [ 119.053635308271694, 36.774100901166037 ] ] ] ] } },
{ "type": "Feature", "properties": { "id": null, "used": "1", "value": 56.32 }, "geometry": { "type": "MultiPolygon", "coordinates": [ [ [ [ 119.049978174588702, 36.776324401474966 ], [ 119.049615944204888, 36.774165068327129 ], [ 119.050033902340076, 36.774153908824694 ], [ 119.050410064661733, 36.776313242286889 ], [ 119.049978174588702, 36.776324401474966 ] ] ] ] } }
]
}
