{
"type": "FeatureCollection",
"name": "crop",
"crs": { "type": "name", "properties": { "name": "urn:ogc:def:crs:OGC:1.3:CRS84" } },
"features": [
{ "type": "Feature", "properties": { "id": null, "value": 70 }, "geometry": { "type": "Point", "coordinates": [ 119.042820495222585, 36.775549155830873 ] } },
{ "type": "Feature", "properties": { "id": null, "value": 65 }, "geometry": { "type": "Point", "coordinates": [ 119.043704879784414, 36.775553386930731 ] } },
{ "type": "Feature", "properties": { "id": null, "value": 93 }, "geometry": { "type": "Point", "coordinates": [ 119.044584916099581, 36.775531095674062 ] } },
{ "type": "Feature", "properties": { "id": null, "value": 55 }, "geometry": { "type": "Point", "coordinates": [ 119.045796002714738, 36.775473379671851 ] } },
{ "type": "Feature", "properties": { "id": null, "value": 95 }, "geometry": { "type": "Point", "coordinates": [ 119.047035595523568, 36.775438705737436 ] } },
{ "type": "Feature", "properties": { "id": null, "value": 75 }, "geometry": { "type": "Point", "coordinates": [ 119.045093969120373, 36.772561138140411 ] } },
{ "type": "Feature", "properties": { "id": null, "value": 73 }, "geometry": { "type": "Point", "coordinates": [ 119.045903387574967, 36.772546515949813 ] } },
{ "type": "Feature", "properties": { "id": null, "value": 86 }, "geometry": { "type": "Point", "coordinates": [ 119.047014843096449, 36.772583948269123 ] } },
{ "type": "Feature", "properties": { "id": null, "value": 65 }, "geometry": { "type": "Point", "coordinates": [ 119.044787893657855, 36.769956639985416 ] } },
{ "type": "Feature", "properties": { "id": null, "value": 35 }, "geometry": { "type": "Point", "coordinates": [ 119.045298828443762, 36.769954095945351 ] } },
{ "type": "Feature", "properties": { "id": null, "value": 45 }, "geometry": { "type": "Point", "coordinates": [ 119.045573068621536, 36.769948441231087 ] } },
{ "type": "Feature", "properties": { "id": null, "value": 50 }, "geometry": { "type": "Point", "coordinates": [ 119.045888420088204, 36.769953668024783 ] } },
{ "type": "Feature", "properties": { "id": null, "value": 60 }, "geometry": { "type": "Point", "coordinates": [ 119.046204106392565, 36.769959306893078 ] } },
{ "type": "Feature", "properties": { "id": null, "value": 85 }, "geometry": { "type": "Point", "coordinates": [ 119.046835205998846, 36.770055891191511 ] } },
{ "type": "Feature", "properties": { "id": null, "value": 87 }, "geometry": { "type": "Point", "coordinates": [ 119.049651445962596, 36.777093248301554 ] } },
{ "type": "Feature", "properties": { "id": null, "value": 75 }, "geometry": { "type": "Point", "coordinates": [ 119.050354027747389, 36.777055133595034 ] } },
{ "type": "Feature", "properties": { "id": null, "value": 60 }, "geometry": { "type": "Point", "coordinates": [ 119.050834446911608, 36.777447198338763 ] } },
{ "type": "Feature", "properties": { "id": null, "value": 75 }, "geometry": { "type": "Point", "coordinates": [ 119.04866109951827, 36.775293499672948 ] } },
{ "type": "Feature", "properties": { "id": null, "value": 85 }, "geometry": { "type": "Point", "coordinates": [ 119.049125135949822, 36.775258276410838 ] } },
{ "type": "Feature", "properties": { "id": null, "value": 65 }, "geometry": { "type": "Point", "coordinates": [ 119.049595522306007, 36.775259134768497 ] } },
{ "type": "Feature", "properties": { "id": null, "value": 90 }, "geometry": { "type": "Point", "coordinates": [ 119.050720533007663, 36.775238129758122 ] } },
{ "type": "Feature", "properties": { "id": null, "value": 70 }, "geometry": { "type": "Point", "coordinates": [ 119.05128960148194, 36.775203970500876 ] } },
{ "type": "Feature", "properties": { "id": null, "value": 71 }, "geometry": { "type": "Point", "coordinates": [ 119.048573370856602, 36.773744724160544 ] } },
{ "type": "Feature", "properties": { "id": null, "value": 92 }, "geometry": { "type": "Point", "coordinates": [ 119.048668137843237, 36.772627818529443 ] } },
{ "type": "Feature", "properties": { "id": null, "value": 35 }, "geometry": { "type": "Point", "coordinates": [ 119.048143380103383, 36.772026498876137 ] } },
{ "type": "Feature", "properties": { "id": null, "value": 50 }, "geometry": { "type": "Point", "coordinates": [ 119.049140123711354, 36.772697399517234 ] } },
{ "type": "Feature", "properties": { "id": null, "value": 77 }, "geometry": { "type": "Point", "coordinates": [ 119.049400884945257, 36.772696250583529 ] } },
{ "type": "Feature", "properties": { "id": null, "value": 92 }, "geometry": { "type": "Point", "coordinates": [ 119.050115617795669, 36.772750559943418 ] } },
{ "type": "Feature", "properties": { "id": null, "value": 89 }, "geometry": { "type": "Point", "coordinates": [ 119.051349156135473, 36.772716202921238 ] } },
{ "type": "Feature", "properties": { "id": null, "value": 91 }, "geometry": { "type": "Point", "coordinates": [ 119.051843196240227, 36.772721069159815 ] } },
{ "type": "Feature", "properties": { "id": null, "value": 88 }, "geometry": { "type": "Point", "coordinates": [ 119.052353403984256, 36.77271926449545 ] } },
{ "type": "Feature", "properties": { "id": null, "value": 84 }, "geometry": { "type": "Point", "coordinates": [ 119.053222125038431, 36.772754750863392 ] } },
{ "type": "Feature", "properties": { "id": null, "value": 50 }, "geometry": { "type": "Point", "coordinates": [ 119.053514210287403, 36.773381106004095 ] } },
{ "type": "Feature", "properties": { "id": null, "value": 70 }, "geometry": { "type": "Point", "coordinates": [ 119.052249505642052, 36.775186519743485 ] } },
{ "type": "Feature", "properties": { "id": null, "value": 91 }, "geometry": { "type": "Point", "coordinates": [ 119.052668430389602, 36.77523254698356 ] } },
{ "type": "Feature", "properties": { "id": null, "value": 96 }, "geometry": { "type": "Point", "coordinates": [ 119.054169491515367, 36.775361528873866 ] } },
{ "type": "Feature", "properties": { "id": null, "value": 86 }, "geometry": { "type": "Point", "coordinates": [ 119.053680878954864, 36.775292082144581 ] } },
{ "type": "Feature", "properties": { "id": null, "value": 70 }, "geometry": { "type": "Point", "coordinates": [ 119.051629314484188, 36.77513813897621 ] } },
{ "type": "Feature", "properties": { "id": null, "value": 91 }, "geometry": { "type": "Point", "coordinates": [ 119.050009680945976, 36.770005420956309 ] } },
{ "type": "Feature", "properties": { "id": null, "value": 93 }, "geometry": { "type": "Point", "coordinates": [ 119.052301519986202, 36.770030486640493 ] } },
{ "type": "Feature", "properties": { "id": null, "value": 85 }, "geometry": { "type": "Point", "coordinates": [ 119.053013334973016, 36.769681863649723 ] } },
{ "type": "Feature", "properties": { "id": null, "value": 81 }, "geometry": { "type": "Point", "coordinates": [ 119.053427468588453, 36.770078275132896 ] } },
{ "type": "Feature", "properties": { "id": null, "value": 75 }, "geometry": { "type": "Point", "coordinates": [ 119.053959553655446, 36.770047635801106 ] } },
{ "type": "Feature", "properties": { "id": null, "value": 93 }, "geometry": { "type": "Point", "coordinates": [ 119.054507204070305, 36.77010147396966 ] } },
{ "type": "Feature", "properties": { "id": null, "value": 85 }, "geometry": { "type": "Point", "coordinates": [ 119.043314045565097, 36.775546302333019 ] } },
{ "type": "Feature", "properties": { "id": null, "value": 91 }, "geometry": { "type": "Point", "coordinates": [ 119.045426069934678, 36.775493425979775 ] } },
{ "type": "Feature", "properties": { "id": null, "value": 81 }, "geometry": { "type": "Point", "coordinates": [ 119.046074895390404, 36.775470446165365 ] } },
{ "type": "Feature", "properties": { "id": null, "value": 74 }, "geometry": { "type": "Point", "coordinates": [ 119.053164634334806, 36.770289540587228 ] } },
{ "type": "Feature", "properties": { "id": null, "value": 68 }, "geometry": { "type": "Point", "coordinates": [ 119.053695035365891, 36.770043651277483 ] } },
{ "type": "Feature", "properties": { "id": null, "value": 61 }, "geometry": { "type": "Point", "coordinates": [ 119.05421002709636, 36.770076434301281 ] } },
{ "type": "Feature", "properties": { "id": null, "value": 98 }, "geometry": { "type": "Point", "coordinates": [ 119.050795692206179, 36.770008704164212 ] } },
{ "type": "Feature", "properties": { "id": null, "value": 96 }, "geometry": { "type": "Point", "coordinates": [ 119.051742135999845, 36.770019600253434 ] } },
{ "type": "Feature", "properties": { "id": null, "value": 86 }, "geometry": { "type": "Point", "coordinates": [ 119.049997171965401, 36.778157023598979 ] } },
{ "type": "Feature", "properties": { "id": null, "value": 91 }, "geometry": { "type": "Point", "coordinates": [ 119.051447582233166, 36.777434253760774 ] } },
{ "type": "Feature", "properties": { "id": null, "value": 72 }, "geometry": { "type": "Point", "coordinates": [ 119.053795890551413, 36.772893160193057 ] } },
{ "type": "Feature", "properties": { "id": null, "value": 64 }, "geometry": { "type": "Point", "coordinates": [ 119.053785076605308, 36.773414587768741 ] } },
{ "type": "Feature", "properties": { "id": null, "value": 71 }, "geometry": { "type": "Point", "coordinates": [ 119.053780273665566, 36.773907478824029 ] } },
{ "type": "Feature", "properties": { "id": null, "value": 94 }, "geometry": { "type": "Point", "coordinates": [ 119.050010531647303, 36.775245028493636 ] } },
{ "type": "Feature", "properties": { "id": null, "value": 83 }, "geometry": { "type": "Point", "coordinates": [ 119.051865512371734, 36.77513492719627 ] } },
{ "type": "Feature", "properties": { "id": null, "value": 94 }, "geometry": { "type": "Point", "coordinates": [ 119.053216910342144, 36.775246520719243 ] } },
{ "type": "Feature", "properties": { "id": null, "value": 55 }, "geometry": { "type": "Point", "coordinates": [ 119.050939038505362, 36.773293610613621 ] } },
{ "type": "Feature", "properties": { "id": null, "value": 88 }, "geometry": { "type": "Point", "coordinates": [ 119.052805918175878, 36.772735627160046 ] } },
{ "type": "Feature", "properties": { "id": null, "value": 87 }, "geometry": { "type": "Point", "coordinates": [ 119.052736258486703, 36.770034929849672 ] } },
{ "type": "Feature", "properties": { "id": null, "value": 59 }, "geometry": { "type": "Point", "coordinates": [ 119.045446372012165, 36.769942858946315 ] } }
]
}
