{
"type": "FeatureCollection",
"name": "gevernment",
"crs": { "type": "name", "properties": { "name": "urn:ogc:def:crs:OGC:1.3:CRS84" } },
"features": [
{ "type": "Feature", "properties": { "id": 2, "name": "粮食仓库", "area": 1800, "manager": "张三", "contact": "987-654-3210", "department": "管理中心", "view": { "center": [ 113.519176, 22.739802000000001 ], "zoom": 18.469999999999999, "pitch": 61.81818181818182, "rotation": 4.9000000000000004 } }, "geometry": { "type": "Point", "coordinates": [ 119.04891444084943, 36.769999653506183 ] } },
{ "type": "Feature", "properties": { "id": 4, "name": "检测中心", "area": 1600, "manager": "李四", "contact": "666-987-6543", "department": "检测中心", "view": { "center": [ 113.54006699999999, 22.729254000000001 ], "zoom": 17.289999999999999, "pitch": 21.363636363636452, "rotation": 18.400000000000055 } }, "geometry": { "type": "Point", "coordinates": [ 119.05071002016129, 36.771683066203451 ] } }
]
}
